CCSDS_OMM_VERS = 2.0
CREATION_DATE  = 
ORIGINATOR     = 

OBJECT_NAME    = SL-16 R/B
OBJECT_ID      = 1992-093B
CENTER_NAME    = EARTH
REF_FRAME      = TEME
TIME_SYSTEM    = UTC
MEAN_ELEMENT_THEORY = SGP/SGP4

EPOCH          = 2025-11-03T14:12:46.183680
MEAN_MOTION    = 14.15417902
ECCENTRICITY   = .0003374
INCLINATION    = 71.0201
RA_OF_ASC_NODE = 268.9712
ARG_OF_PERICENTER = 171.4976
MEAN_ANOMALY   = 188.6205

EPHEMERIS_TYPE = 0
CLASSIFICATION_TYPE = U
NORAD_CAT_ID   = 22285
ELEMENT_SET_NO = 999
REV_AT_EPOCH   = 69531
BSTAR          = .43432E-4
MEAN_MOTION_DOT = .37E-6
MEAN_MOTION_DDOT = 0

CCSDS_OMM_VERS = 2.0
CREATION_DATE  = 
ORIGINATOR     = 

OBJECT_NAME    = COSMOS 2228
OBJECT_ID      = 1992-094A
CENTER_NAME    = EARTH
REF_FRAME      = TEME
TIME_SYSTEM    = UTC
MEAN_ELEMENT_THEORY = SGP/SGP4

EPOCH          = 2025-11-03T18:40:02.402112
MEAN_MOTION    = 14.96464709
ECCENTRICITY   = .0018247
INCLINATION    = 82.5204
RA_OF_ASC_NODE = 357.8083
ARG_OF_PERICENTER = 11.0573
MEAN_ANOMALY   = 349.1046

EPHEMERIS_TYPE = 0
CLASSIFICATION_TYPE = U
NORAD_CAT_ID   = 22286
ELEMENT_SET_NO = 999
REV_AT_EPOCH   = 75722
BSTAR          = .19163E-3
MEAN_MOTION_DOT = .2207E-4
MEAN_MOTION_DDOT = 0

CCSDS_OMM_VERS = 2.0
CREATION_DATE  = 
ORIGINATOR     = 

OBJECT_NAME    = SL-16 R/B
OBJECT_ID      = 1993-016B
CENTER_NAME    = EARTH
REF_FRAME      = TEME
TIME_SYSTEM    = UTC
MEAN_ELEMENT_THEORY = SGP/SGP4

EPOCH          = 2025-11-03T18:16:26.751072
MEAN_MOTION    = 14.15278699
ECCENTRICITY   = .0009509
INCLINATION    = 71.0048
RA_OF_ASC_NODE = 119.6664
ARG_OF_PERICENTER = 168.0896
MEAN_ANOMALY   = 192.0454

EPHEMERIS_TYPE = 0
CLASSIFICATION_TYPE = U
NORAD_CAT_ID   = 22566
ELEMENT_SET_NO = 999
REV_AT_EPOCH   = 68435
BSTAR          = -.66757E-4
MEAN_MOTION_DOT = -.178E-5
MEAN_MOTION_DDOT = 0

CCSDS_OMM_VERS = 2.0
CREATION_DATE  = 
ORIGINATOR     = 

OBJECT_NAME    = COSMOS 2242
OBJECT_ID      = 1993-024A
CENTER_NAME    = EARTH
REF_FRAME      = TEME
TIME_SYSTEM    = UTC
MEAN_ELEMENT_THEORY = SGP/SGP4

EPOCH          = 2025-11-03T15:22:22.248192
MEAN_MOTION    = 14.95862826
ECCENTRICITY   = .0016664
INCLINATION    = 82.5224
RA_OF_ASC_NODE = 27.2032
ARG_OF_PERICENTER = 14.5117
MEAN_ANOMALY   = 345.6579

EPHEMERIS_TYPE = 0
CLASSIFICATION_TYPE = U
NORAD_CAT_ID   = 22626
ELEMENT_SET_NO = 999
REV_AT_EPOCH   = 76154
BSTAR          = .23214E-3
MEAN_MOTION_DOT = .2626E-4
MEAN_MOTION_DDOT = 0

CCSDS_OMM_VERS = 2.0
CREATION_DATE  = 
ORIGINATOR     = 

OBJECT_NAME    = SL-16 R/B
OBJECT_ID      = 1993-059B
CENTER_NAME    = EARTH
REF_FRAME      = TEME
TIME_SYSTEM    = UTC
MEAN_ELEMENT_THEORY = SGP/SGP4

EPOCH          = 2025-11-03T15:06:32.332896
MEAN_MOTION    = 14.17202235
ECCENTRICITY   = .0015666
INCLINATION    = 70.9891
RA_OF_ASC_NODE = 276.9568
ARG_OF_PERICENTER = 35.6361
MEAN_ANOMALY   = 324.5805

EPHEMERIS_TYPE = 0
CLASSIFICATION_TYPE = U
NORAD_CAT_ID   = 22803
ELEMENT_SET_NO = 999
REV_AT_EPOCH   = 66167
BSTAR          = -.57424E-4
MEAN_MOTION_DOT = -.164E-5
MEAN_MOTION_DDOT = 0

CCSDS_OMM_VERS = 2.0
CREATION_DATE  = 
ORIGINATOR     = 

OBJECT_NAME    = ARIANE 40 R/B
OBJECT_ID      = 1993-061H
CENTER_NAME    = EARTH
REF_FRAME      = TEME
TIME_SYSTEM    = UTC
MEAN_ELEMENT_THEORY = SGP/SGP4

EPOCH          = 2025-11-02T11:07:26.883840
MEAN_MOTION    = 14.32762595
ECCENTRICITY   = .0009698
INCLINATION    = 98.5124
RA_OF_ASC_NODE = 12.7172
ARG_OF_PERICENTER = 303.9269
MEAN_ANOMALY   = 56.0992

EPHEMERIS_TYPE = 0
CLASSIFICATION_TYPE = U
NORAD_CAT_ID   = 22830
ELEMENT_SET_NO = 999
REV_AT_EPOCH   = 67588
BSTAR          = .1257E-3
MEAN_MOTION_DOT = .299E-5
MEAN_MOTION_DDOT = 0

CCSDS_OMM_VERS = 2.0
CREATION_DATE  = 
ORIGINATOR     = 

OBJECT_NAME    = COSMOS 2278
OBJECT_ID      = 1994-023A
CENTER_NAME    = EARTH
REF_FRAME      = TEME
TIME_SYSTEM    = UTC
MEAN_ELEMENT_THEORY = SGP/SGP4

EPOCH          = 2025-11-02T12:07:40.111104
MEAN_MOTION    = 14.14331091
ECCENTRICITY   = .0010505
INCLINATION    = 71.0519
RA_OF_ASC_NODE = 81.1831
ARG_OF_PERICENTER = 231.6079
MEAN_ANOMALY   = 128.4101

EPHEMERIS_TYPE = 0
CLASSIFICATION_TYPE = U
NORAD_CAT_ID   = 23087
ELEMENT_SET_NO = 999
REV_AT_EPOCH   = 62682
BSTAR          = .30163E-4
MEAN_MOTION_DOT = .1E-6
MEAN_MOTION_DDOT = 0

CCSDS_OMM_VERS = 2.0
CREATION_DATE  = 
ORIGINATOR     = 

OBJECT_NAME    = SL-16 R/B
OBJECT_ID      = 1994-023B
CENTER_NAME    = EARTH
REF_FRAME      = TEME
TIME_SYSTEM    = UTC
MEAN_ELEMENT_THEORY = SGP/SGP4

EPOCH          = 2025-11-03T19:29:01.010400
MEAN_MOTION    = 14.14992916
ECCENTRICITY   = .0001923
INCLINATION    = 71.0009
RA_OF_ASC_NODE = 335.2386
ARG_OF_PERICENTER = 177.6285
MEAN_ANOMALY   = 182.4847

EPHEMERIS_TYPE = 0
CLASSIFICATION_TYPE = U
NORAD_CAT_ID   = 23088
ELEMENT_SET_NO = 999
REV_AT_EPOCH   = 62828
BSTAR          = .33114E-4
MEAN_MOTION_DOT = .16E-6
MEAN_MOTION_DDOT = 0

CCSDS_OMM_VERS = 2.0
CREATION_DATE  = 
ORIGINATOR     = 

OBJECT_NAME    = SL-16 R/B
OBJECT_ID      = 1994-074B
CENTER_NAME    = EARTH
REF_FRAME      = TEME
TIME_SYSTEM    = UTC
MEAN_ELEMENT_THEORY = SGP/SGP4

EPOCH          = 2025-11-02T08:25:43.153824
MEAN_MOTION    = 14.79218168
ECCENTRICITY   = .0005117
INCLINATION    = 97.7259
RA_OF_ASC_NODE = 337.2505
ARG_OF_PERICENTER = 278.1489
MEAN_ANOMALY   = 97.9652

EPHEMERIS_TYPE = 0
CLASSIFICATION_TYPE = U
NORAD_CAT_ID   = 23343
ELEMENT_SET_NO = 999
REV_AT_EPOCH   = 66842
BSTAR          = .90835E-4
MEAN_MOTION_DOT = .625E-5
MEAN_MOTION_DDOT = 0

CCSDS_OMM_VERS = 2.0
CREATION_DATE  = 
ORIGINATOR     = 

OBJECT_NAME    = SL-16 R/B
OBJECT_ID      = 1994-077B
CENTER_NAME    = EARTH
REF_FRAME      = TEME
TIME_SYSTEM    = UTC
MEAN_ELEMENT_THEORY = SGP/SGP4

EPOCH          = 2025-11-03T20:13:13.162944
MEAN_MOTION    = 14.15538583
ECCENTRICITY   = .0003519
INCLINATION    = 70.9816
RA_OF_ASC_NODE = 257.2405
ARG_OF_PERICENTER = 315.4542
MEAN_ANOMALY   = 44.6297

EPHEMERIS_TYPE = 0
CLASSIFICATION_TYPE = U
NORAD_CAT_ID   = 23405
ELEMENT_SET_NO = 999
REV_AT_EPOCH   = 59842
BSTAR          = .66799E-4
MEAN_MOTION_DOT = .83E-6
MEAN_MOTION_DDOT = 0

CCSDS_OMM_VERS = 2.0
CREATION_DATE  = 
ORIGINATOR     = 

OBJECT_NAME    = ARIANE 40+ R/B
OBJECT_ID      = 1995-021B
CENTER_NAME    = EARTH
REF_FRAME      = TEME
TIME_SYSTEM    = UTC
MEAN_ELEMENT_THEORY = SGP/SGP4

EPOCH          = 2025-11-03T16:43:43.291776
MEAN_MOTION    = 14.39647870
ECCENTRICITY   = .0007368
INCLINATION    = 98.4697
RA_OF_ASC_NODE = 15.7494
ARG_OF_PERICENTER = 151.5902
MEAN_ANOMALY   = 11.4140

EPHEMERIS_TYPE = 0
CLASSIFICATION_TYPE = U
NORAD_CAT_ID   = 23561
ELEMENT_SET_NO = 999
REV_AT_EPOCH   = 60111
BSTAR          = .13539E-3
MEAN_MOTION_DOT = .38E-5
MEAN_MOTION_DDOT = 0

CCSDS_OMM_VERS = 2.0
CREATION_DATE  = 
ORIGINATOR     = 

OBJECT_NAME    = SL-16 R/B
OBJECT_ID      = 1995-058B
CENTER_NAME    = EARTH
REF_FRAME      = TEME
TIME_SYSTEM    = UTC
MEAN_ELEMENT_THEORY = SGP/SGP4

EPOCH          = 2025-11-03T18:32:32.260704
MEAN_MOTION    = 14.15473149
ECCENTRICITY   = .0014324
INCLINATION    = 71.0204
RA_OF_ASC_NODE = 84.6116
ARG_OF_PERICENTER = 305.9241
MEAN_ANOMALY   = 54.0552

EPHEMERIS_TYPE = 0
CLASSIFICATION_TYPE = U
NORAD_CAT_ID   = 23705
ELEMENT_SET_NO = 999
REV_AT_EPOCH   = 55003
BSTAR          = .16804E-3
MEAN_MOTION_DOT = .281E-5
MEAN_MOTION_DDOT = 0

