SL-16 R/B               
1 22285U 92093B   25307.59220120  .00000037  00000+0  43432-4 0  9999
2 22285  71.0201 268.9712 0003374 171.4976 188.6205 14.15417902695317
COSMOS 2228             
1 22286U 92094A   25307.77780558  .00002207  00000+0  19163-3 0  9991
2 22286  82.5204 357.8083 0018247  11.0573 349.1046 14.96464709757226
SL-16 R/B               
1 22566U 93016B   25307.76142073 -.00000178  00000+0 -66757-4 0  9999
2 22566  71.0048 119.6664 0009509 168.0896 192.0454 14.15278699684350
COSMOS 2242             
1 22626U 93024A   25307.64053528  .00002626  00000+0  23214-3 0  9996
2 22626  82.5224  27.2032 0016664  14.5117 345.6579 14.95862826761544
SL-16 R/B               
1 22803U 93059B   25307.62954089 -.00000164  00000+0 -57424-4 0  9999
2 22803  70.9891 276.9568 0015666  35.6361 324.5805 14.17202235661672
ARIANE 40 R/B           
1 22830U 93061H   25306.46350560  .00000299  00000+0  12570-3 0  9996
2 22830  98.5124  12.7172 0009698 303.9269  56.0992 14.32762595675889
COSMOS 2278             
1 23087U 94023A   25306.50532536  .00000010  00000+0  30163-4 0  9990
2 23087  71.0519  81.1831 0010505 231.6079 128.4101 14.14331091626824
SL-16 R/B               
1 23088U 94023B   25307.81181725  .00000016  00000+0  33114-4 0  9991
2 23088  71.0009 335.2386 0001923 177.6285 182.4847 14.14992916628287
SL-16 R/B               
1 23343U 94074B   25306.35119391  .00000625  00000+0  90835-4 0  9998
2 23343  97.7259 337.2505 0005117 278.1489  97.9652 14.79218168668425
SL-16 R/B               
1 23405U 94077B   25307.84251346  .00000083  00000+0  66799-4 0  9992
2 23405  70.9816 257.2405 0003519 315.4542  44.6297 14.15538583598427
ARIANE 40+ R/B          
1 23561U 95021B   25307.69702884  .00000380  00000+0  13539-3 0  9999
2 23561  98.4697  15.7494 0007368 151.5902  11.4140 14.39647870601118
SL-16 R/B               
1 23705U 95058B   25307.77259561  .00000281  00000+0  16804-3 0  9995
2 23705  71.0204  84.6116 0014324 305.9241  54.0552 14.15473149550030
